NORAD_CAT_ID,OBJECT_NAME,OBJECT_TYPE,EPOCH,MEAN_MOTION,ECCENTRICITY,INCLINATION,RA_OF_ASC_NODE,ARG_OF_PERICENTER,MEAN_ANOMALY,BSTAR,MEAN_MOTION_DOT,MEAN_MOTION_DDOT,TLE_LINE0,TLE_LINE1,TLE_LINE2,SEMIMAJOR_AXIS,PERIOD,APOGEE,PERIGEE,DECAYED
55768.0,STARLINK-5583,PAYLOAD,2023-04-03 15:43:16,15.69928734,0.0003412,69.9998,68.3303,264.0077,96.073,2.5366e-05,2.839e-05,0.0,0 STARLINK-5583,1 55768U 23028AD  23093.65505440  .00002839  00000-0  25366-4 0  9990,2 55768  69.9998  68.3303 0003412 264.0077  96.0730 15.69928734  5523,6737.238,91.724,361.402,356.804,0.0
55768.0,STARLINK-5583,PAYLOAD,2023-04-04 08:32:33,15.69929532,0.0003439,70.0036,66.3624,260.5948,99.4859,2.7918e-05,3.146e-05,0.0,0 STARLINK-5583,1 55768U 23028AD  23094.35593865  .00003146  00000-0  27918-4 0  9993,2 55768  70.0036  66.3624 0003439 260.5948  99.4859 15.69929532  5627,6737.236,91.724,361.418,356.784,0.0
55768.0,STARLINK-5583,PAYLOAD,2023-04-05 01:21:50,15.69920092,0.0003456,69.9993,64.3891,261.8508,98.2295,1.0474e-05,1.047e-05,0.0,0 STARLINK-5583,1 55768U 23028AD  23095.05682872  .00001047  00000-0  10474-4 0  9995,2 55768  69.9993  64.3891 0003456 261.8508  98.2295 15.69920092  5730,6737.263,91.724,361.456,356.799,0.0
55768.0,STARLINK-5583,PAYLOAD,2023-04-05 07:28:50,15.69930755,0.0003023,70.0005,63.6737,256.088,103.9979,3.3881e-05,3.864e-05,0.0,0 STARLINK-5583,1 55768U 23028AD  23095.31169158  .00003864  00000-0  33881-4 0  9997,2 55768  70.0005  63.6737 0003023 256.0880 103.9979 15.69930755  5771,6737.232,91.724,361.134,357.06,0.0
55768.0,STARLINK-5583,PAYLOAD,2023-04-05 10:32:20,15.69932746,0.0003143,70.0,63.3145,261.0208,99.0632,3.9179e-05,4.502e-05,0.0,0 STARLINK-5583,1 55768U 23028AD  23095.43912417  .00004502  00000-0  39179-4 0  9990,2 55768  70.0000  63.3145 0003143 261.0208  99.0632 15.69932746  5806,6737.226,91.724,361.209,356.974,0.0
55768.0,STARLINK-5583,PAYLOAD,2023-04-06 00:18:06,15.69923976,0.0003009,70.0007,61.7019,256.6097,103.4764,9.8039e-06,9.66e-06,0.0,0 STARLINK-5583,1 55768U 23028AD  23096.01257795  .00000966  00000-0  98039-5 0  9997,2 55768  70.0007  61.7019 0003009 256.6097 103.4764 15.69923976  5881,6737.252,91.724,361.144,357.089,0.0
55768.0,STARLINK-5583,PAYLOAD,2023-04-06 06:25:06,15.69930326,0.0002797,70.0007,60.9851,257.5331,102.5551,3.4521e-06,2.03e-06,0.0,0 STARLINK-5583,1 55768U 23028AD  23096.26744126  .00000203  00000-0  34521-5 0  9993,2 55768  70.0007  60.9851 0002797 257.5331 102.5551 15.69930326  5937,6737.233,91.724,360.983,357.214,0.0
55768.0,STARLINK-5583,PAYLOAD,2023-04-06 21:42:38,15.69928056,0.000288,69.9996,59.1926,255.4835,104.6041,-2.0338e-06,-4.57e-06,0.0,0 STARLINK-5583,1 55768U 23028AD  23096.90461098 -.00000457  00000-0 -20338-5 0  9992,2 55768  69.9996  59.1926 0002880 255.4835 104.6041 15.69928056  6039,6737.24,91.724,361.045,357.165,0.0
55768.0,STARLINK-5583,PAYLOAD,2023-04-07 00:46:08,15.69925087,0.0003288,70.0003,58.8359,229.2504,130.8406,-5.868e-06,-9.18e-06,0.0,0 STARLINK-5583,1 55768U 23028AD  23097.03204363 -.00000918  00000-0 -58680-5 0  9990,2 55768  70.0003  58.8359 0003288 229.2504 130.8406 15.69925087  6040,6737.248,91.724,361.329,356.898,0.0
55768.0,STARLINK-5583,PAYLOAD,2023-04-07 06:53:09,15.69929898,0.0003267,69.9988,58.1202,259.7885,100.2942,5.6583e-06,4.68e-06,0.0,0 STARLINK-5583,1 55768U 23028AD  23097.28691083  .00000468  00000-0  56583-5 0  9994,2 55768  69.9988  58.1202 0003267 259.7885 100.2942 15.69929898  6091,6737.235,91.724,361.301,356.899,0.0
55768.0,STARLINK-5583,PAYLOAD,2023-04-08 07:21:11,15.69920508,0.0003147,69.9992,55.2541,249.9085,110.1773,2.658e-06,1.07e-06,0.0,0 STARLINK-5583,1 55768U 23028AD  23098.30638411  .00000107  00000-0  26580-5 0  9998,2 55768  69.9992  55.2541 0003147 249.9085 110.1773 15.69920508  6248,6737.261,91.724,361.247,357.006,0.0
55768.0,STARLINK-5583,PAYLOAD,2023-04-09 03:13:57,15.69924165,0.0003729,69.9988,52.9246,259.9137,100.1638,2.1658e-05,2.392e-05,0.0,0 STARLINK-5583,1 55768U 23028AD  23099.13469543  .00002392  00000-0  21658-4 0  9996,2 55768  69.9988  52.9246 0003729 259.9137 100.1638 15.69924165  6370,6737.251,91.724,361.628,356.604,0.0
55768.0,STARLINK-5583,PAYLOAD,2023-04-09 06:17:27,15.69928244,0.0003838,69.9983,52.5679,266.0511,94.0246,1.8933e-05,2.065e-05,0.0,0 STARLINK-5583,1 55768U 23028AD  23099.26212670  .00002065  00000-0  18933-4 0  9996,2 55768  69.9983  52.5679 0003838 266.0511  94.0246 15.69928244  6409,6737.239,91.724,361.69,356.519,0.0
55768.0,STARLINK-5583,PAYLOAD,2023-04-09 23:06:44,15.69918676,0.0003556,69.9989,50.5974,264.4513,95.6277,1.794e-05,1.944e-05,0.0,0 STARLINK-5583,1 55768U 23028AD  23099.96301557  .00001944  00000-0  17940-4 0  9998,2 55768  69.9989  50.5974 0003556 264.4513  95.6277 15.69918676  6502,6737.267,91.724,361.527,356.736,0.0
55768.0,STARLINK-5583,PAYLOAD,2023-04-10 08:17:15,15.69916102,0.000349,69.999,49.5212,267.2933,92.7863,2.4859e-05,2.776e-05,0.0,0 STARLINK-5583,1 55768U 23028AD  23100.34531864  .00002776  00000-0  24859-4 0  9990,2 55768  69.9990  49.5212 0003490 267.2933  92.7863 15.69916102  6579,6737.274,91.725,361.49,356.788,0.0
55768.0,STARLINK-5583,PAYLOAD,2023-04-11 05:41:46,15.6992612,0.000308,70.0001,47.0144,266.3444,93.7399,1.4967e-06,-3.3e-07,0.0,0 STARLINK-5583,1 55768U 23028AD  23101.23734853 -.00000033  00000-0  14967-5 0  9997,2 55768  70.0001  47.0144 0003080 266.3444  93.7399 15.69926120  6716,6737.245,91.724,361.185,357.035,0.0
55768.0,STARLINK-5583,PAYLOAD,2023-04-11 19:27:33,15.69926396,0.0003299,69.9989,45.4003,268.1563,91.9255,-8.1311e-06,-1.19e-05,0.0,0 STARLINK-5583,1 55768U 23028AD  23101.81080267 -.00001190  00000-0 -81311-5 0  9997,2 55768  69.9989  45.4003 0003299 268.1563  91.9255 15.69926396  6804,6737.245,91.724,361.332,356.887,0.0
55768.0,STARLINK-5583,PAYLOAD,2023-04-12 04:38:03,15.69934974,0.0003003,69.9997,44.327,260.8119,99.2737,2.2001e-06,5.2e-07,0.0,0 STARLINK-5583,1 55768U 23028AD  23102.19309399  .00000052  00000-0  22001-5 0  9994,2 55768  69.9997  44.3270 0003003 260.8119  99.2737 15.69934974  6858,6737.22,91.724,361.108,357.062,0.0
55768.0,STARLINK-5583,PAYLOAD,2023-04-12 07:41:34,15.69924332,0.0003483,69.9997,43.968,276.0066,84.0732,-1.6928e-06,-4.16e-06,0.0,0 STARLINK-5583,1 55768U 23028AD  23102.32053536 -.00000416  00000-0 -16928-5 0  9995,2 55768  69.9997  43.9680 0003483 276.0066  84.0732 15.69924332  6887,6737.25,91.724,361.462,356.769,0.0
55768.0,STARLINK-5583,PAYLOAD,2023-04-13 06:37:50,15.69922621,0.000336,69.9985,41.2825,271.7361,88.345,1.6655e-05,1.79e-05,0.0,0 STARLINK-5583,1 55768U 23028AD  23103.27628445  .00001790  00000-0  16655-4 0  9997,2 55768  69.9985  41.2825 0003360 271.7361  88.3450 15.69922621  7031,6737.255,91.724,361.384,356.857,0.0
55768.0,STARLINK-5583,PAYLOAD,2023-04-13 12:44:51,15.69915422,0.0003096,69.9986,40.5654,275.4715,84.6128,1.9771e-05,2.164e-05,0.0,0 STARLINK-5583,1 55768U 23028AD  23103.53115730  .00002164  00000-0  19771-4 0  9992,2 55768  69.9986  40.5654 0003096 275.4715  84.6128 15.69915422  7069,6737.276,91.725,361.227,357.055,0.0
55768.0,STARLINK-5583,PAYLOAD,2023-04-14 02:30:37,15.69925123,0.0003049,70.0012,38.9573,254.6286,105.4573,8.8229e-06,8.48e-06,0.0,0 STARLINK-5583,1 55768U 23028AD  23104.10460233  .00000848  00000-0  88229-5 0  9999,2 55768  70.0012  38.9573 0003049 254.6286 105.4573 15.69925123  7158,6737.248,91.724,361.167,357.059,0.0
55768.0,STARLINK-5583,PAYLOAD,2023-04-14 05:34:07,15.69928341,0.000357,69.999,38.5954,267.3287,92.75,8.3571e-06,7.92e-06,0.0,0 STARLINK-5583,1 55768U 23028AD  23104.23203372  .00000792  00000-0  83571-5 0  9995,2 55768  69.9990  38.5954 0003570 267.3287  92.7500 15.69928341  7186,6737.239,91.724,361.509,356.699,0.0
55768.0,STARLINK-5583,PAYLOAD,2023-04-15 02:58:38,15.6993435,0.0003349,69.9992,36.0874,267.7643,92.3169,2.5346e-05,2.837e-05,0.0,0 STARLINK-5583,1 55768U 23028AD  23105.12406128  .00002837  00000-0  25346-4 0  9995,2 55768  69.9992  36.0874 0003349 267.7643  92.3169 15.69934350  7315,6737.222,91.724,361.343,356.831,0.0
55768.0,STARLINK-5583,PAYLOAD,2023-04-15 04:30:24,15.69915587,0.0003215,69.999,35.9084,269.3453,90.7374,6.209e-05,7.257e-05,0.0,0 STARLINK-5583,1 55768U 23028AD  23105.18778300  .00007257  00000-0  62090-4 0  9993,2 55768  69.9990  35.9084 0003215 269.3453  90.7374 15.69915587  7325,6737.276,91.725,361.307,356.974,0.0
55768.0,STARLINK-5583,PAYLOAD,2023-04-15 21:19:41,15.69915791,0.0003214,70.0004,33.9384,264.7006,95.3823,1.4421e-05,1.521e-05,0.0,0 STARLINK-5583,1 55768U 23028AD  23105.88867800  .00001521  00000-0  14421-4 0  9997,2 55768  70.0004  33.9384 0003214 264.7006  95.3823 15.69915791  7447,6737.275,91.725,361.305,356.975,0.0
55768.0,STARLINK-5583,PAYLOAD,2023-04-16 04:58:27,15.69916246,0.0002881,70.0016,33.0416,264.1376,95.9492,-2.0436e-05,-2.668e-05,0.0,0 STARLINK-5583,1 55768U 23028AD  23106.20726034 -.00002668  00000-0 -20436-4 0  9995,2 55768  70.0016  33.0416 0002881 264.1376  95.9492 15.69916246  7488,6737.274,91.725,361.08,357.198,0.0
55768.0,STARLINK-5583,PAYLOAD,2023-04-16 21:47:43,15.69916835,0.0003542,70.0012,31.0708,263.9616,96.1176,-1.622e-05,-2.162e-05,0.0,0 STARLINK-5583,1 55768U 23028AD  23106.90814394 -.00002162  00000-0 -16220-4 0  9994,2 55768  70.0012  31.0708 0003542 263.9616  96.1176 15.69916835  7605,6737.272,91.725,361.523,356.751,0.0
55768.0,STARLINK-5583,PAYLOAD,2023-04-17 03:54:43,15.69929054,0.0003343,70.0015,30.3548,251.3507,108.7326,9.0553e-06,8.76e-06,0.0,0 STARLINK-5583,1 55768U 23028AD  23107.16300514  .00000876  00000-0  90553-5 0  9997,2 55768  70.0015  30.3548 0003343 251.3507 108.7326 15.69929054  7638,6737.237,91.724,361.354,356.85,0.0
55768.0,STARLINK-5583,PAYLOAD,2023-04-17 20:44:00,15.69915322,0.000412,70.0015,28.3832,272.9574,87.115,5.3774e-06,4.33e-06,0.0,0 STARLINK-5583,1 55768U 23028AD  23107.86389638  .00000433  00000-0  53774-5 0  9991,2 55768  70.0015  28.3832 0004120 272.9574  87.1150 15.69915322  7748,6737.276,91.725,361.917,356.366,0.0
